STARLINK-35668          
1 66401U 25257X   25322.66672454 -.01650945  00000+0 -70978-2 0  9996
2 66401  53.1532  20.4651 0001275  52.3556  61.1618 15.87153112  2624
STARLINK-35644          
1 66402U 25257Y   25322.66672454 -.01629945  00000+0 -70067-2 0  9992
2 66402  53.1533  20.4744 0001106  50.9474  58.1182 15.87119572  2629
STARLINK-35602          
1 66403U 25257Z   25322.66672454 -.01653383  00000+0 -70980-2 0  9990
2 66403  53.1532  20.4617 0001112  51.4343  63.7186 15.87188603  2623
STARLINK-35691          
1 66404U 25257AA  25322.66672454 -.01661824  00000+0 -71365-2 0  9998
2 66404  53.1532  20.4568 0001146  52.7649  64.7892 15.87196997  2629
STARLINK-35683          
1 66405U 25257AB  25322.66672454 -.01675305  00000+0 -72006-2 0  9991
2 66405  53.1530  20.4513 0001156  53.8055  66.2739 15.87204378  2464
STARLINK-34840          
1 66406U 25257AC  25322.66672454 -.01704523  00000+0 -73324-2 0  9991
2 66406  53.1529  20.4367 0001195  58.0516  69.0699 15.87240223  2568
STARLINK-35686          
1 66407U 25257AD  25322.66672454 -.01680234  00000+0 -72177-2 0  9999
2 66407  53.1534  20.4470 0001155  55.5842  66.5426 15.87224771  2627
STARLINK-35679          
1 66408U 25257AE  25322.66672454 -.01690297  00000+0 -72670-2 0  9998
2 66408  53.1534  20.4419 0001198  54.2423  70.4886 15.87225683  2626
CHUTIAN-2 A             
1 66409U 25256A   25322.71057644  .00000088  00000+0  33645-4 0  9993
2 66409  98.2818  27.8935 0013363 257.4696 102.5004 14.50667584  1393
CHUTIAN-2 B             
1 66410U 25256B   25322.91643796  .00000851  00000+0  22625-3 0  9999
2 66410  98.2824  28.1024 0012683 257.7304 102.2471 14.50978633  1427
HULIANWANG DIGUI 13A    
1 66412U 25258A   25322.42683008 -.00000050  00000+0  46161-4 0  9993
2 66412  50.0052   4.3617 0013837 273.6220  86.3111 14.25710024  1195
